#bP2007 03 20 23 59 00.00000000    1443  u+U  IGS00 FIT  JPL
## 1419 259140.00000000    60.00000000 54180 0.9993055555556
+    1   L09  0  0  0  0  0  0  0  0  0  0  0  0  0  0  0  0
+          0  0  0  0  0  0  0  0  0  0  0  0  0  0  0  0  0
+          0  0  0  0  0  0  0  0  0  0  0  0  0  0  0  0  0
+          0  0  0  0  0  0  0  0  0  0  0  0  0  0  0  0  0
+          0  0  0  0  0  0  0  0  0  0  0  0  0  0  0  0  0
++         0  0  0  0  0  0  0  0  0  0  0  0  0  0  0  0  0
++         0  0  0  0  0  0  0  0  0  0  0  0  0  0  0  0  0
++         0  0  0  0  0  0  0  0  0  0  0  0  0  0  0  0  0
++         0  0  0  0  0  0  0  0  0  0  0  0  0  0  0  0  0
++         0  0  0  0  0  0  0  0  0  0  0  0  0  0  0  0  0
%c M  cc GPS ccc cccc cccc cccc cccc ccccc ccccc ccccc ccccc
%c cc cc ccc ccc cccc cccc cccc cccc ccccc ccccc ccccc ccccc
%f   .0000000   .000000000   .00000000000   .000000000000000
%f   .0000000   .000000000   .00000000000   .000000000000000
%i    0    0    0    0      0      0      0      0         0
%i    0    0    0    0      0      0      0      0         0
/* NOTE: CCCCCCCCCCCCCCCCCCCCCCCCCCCCCCCCCCCCCCCCCCCCCCCCCCC
/* CCCCCCCCCCCCCCCCCCCCCCCCCCCCCCCCCCCCCCCCCCCCCCCCCCCCCCCCC
/* CCCCCCCCCCCCCCCCCCCCCCCCCCCCCCCCCCCCCCCCCCCCCCCCCCCCCCCCC
/* CCCCCCCCCCCCCCCCCCCCCCCCCCCCCCCCCCCCCCCCCCCCCCCCCCCCCCCCC
*  2007 03 21 03 05 00.00000000
PL09   -810.230699  -2363.140555   6351.245381 999999.999999
*  2007 03 21 03 06 00.00000000
PL09   -658.190203  -1958.825634   6504.469474 999999.999999
*  2007 03 21 03 07 00.00000000
PL09   -499.636777  -1547.111999   6628.407856 999999.999999
*  2007 03 21 03 08 00.00000000
PL09   -335.223194  -1129.896211   6722.510231 999999.999999
*  2007 03 21 03 09 00.00000000
PL09   -165.644781   -709.092586   6786.360610 999999.999999
*  2007 03 21 03 10 00.00000000
PL09      8.363576   -286.624307   6819.679062 999999.999999
*  2007 03 21 03 11 00.00000000
PL09    186.030697    135.585489   6822.322865 999999.999999
*  2007 03 21 03 12 00.00000000
PL09    366.552624    555.622619   6794.286966 999999.999999
*  2007 03 21 03 13 00.00000000
PL09    549.096282    971.590560   6735.703866 999999.999999
*  2007 03 21 03 14 00.00000000
PL09    732.803400   1381.619138   6646.842983 999999.999999
*  2007 03 21 03 15 00.00000000
PL09    916.794617   1783.873056   6528.109256 999999.999999
*  2007 03 21 03 16 00.00000000
PL09   1100.173694   2176.560064   6380.041227 999999.999999
*  2007 03 21 03 17 00.00000000
PL09   1282.031893   2557.938944   6203.308625 999999.999999
*  2007 03 21 03 18 00.00000000
PL09   1461.452470   2926.327254   5998.709467 999999.999999
*  2007 03 21 03 19 00.00000000
PL09   1637.515310   3280.108929   5767.166584 999999.999999
*  2007 03 21 03 20 00.00000000
PL09   1809.301626   3617.741522   5509.723499 999999.999999
*  2007 03 21 03 21 00.00000000
PL09   1975.898745   3937.763080   5227.539815 999999.999999
*  2007 03 21 03 22 00.00000000
PL09   2136.405000   4238.798670   4921.886024 999999.999999
*  2007 03 21 03 23 00.00000000
PL09   2289.934595   4519.566429   4594.137738 999999.999999
*  2007 03 21 03 24 00.00000000
PL09   2435.622379   4778.883105   4245.769489 999999.999999
*  2007 03 21 03 25 00.00000000
PL09   2572.628601   5015.669168   3878.348134 999999.999999
*  2007 03 21 03 26 00.00000000
PL09   2700.143584   5228.953373   3493.525891 999999.999999
*  2007 03 21 03 27 00.00000000
PL09   2817.392509   5417.877136   3093.033074 999999.999999
*  2007 03 21 03 28 00.00000000
PL09   2923.640014   5581.698340   2678.669972 999999.999999
*  2007 03 21 03 29 00.00000000
PL09   3018.194541   5719.794269   2252.298409 999999.999999
*  2007 03 21 03 30 00.00000000
PL09   3100.412428   5831.663827   1815.833174 999999.999999
*  2007 03 21 03 31 00.00000000
PL09   3169.701831   5916.929333   1371.233273 999999.999999
*  2007 03 21 03 32 00.00000000
PL09   3225.526398   5975.337694    920.492879 999999.999999
*  2007 03 21 03 33 00.00000000
PL09   3267.408694   6006.760929    465.632161 999999.999999
*  2007 03 21 03 34 00.00000000
PL09   3294.933380   6011.196091      8.688004 999999.999999
*  2007 03 21 03 35 00.00000000
PL09   3307.750095   5988.764495   -448.295393 999999.999999
*  2007 03 21 03 36 00.00000000
PL09   3305.575933   5939.710290   -903.275838 999999.999999
*  2007 03 21 03 37 00.00000000
PL09   3288.197598   5864.398532  -1354.222380 999999.999999
*  2007 03 21 03 38 00.00000000
PL09   3255.473275   5763.312705  -1799.124524 999999.999999
*  2007 03 21 03 39 00.00000000
PL09   3207.334121   5637.051592  -2236.001328 999999.999999
*  2007 03 21 03 40 00.00000000
PL09   3143.785372   5486.325624  -2662.910272 999999.999999
*  2007 03 21 03 41 00.00000000
PL09   3064.907067   5311.952703  -3077.955935 999999.999999
*  2007 03 21 03 42 00.00000000
PL09   2970.854359   5114.853487  -3479.298359 999999.999999
*  2007 03 21 03 43 00.00000000
PL09   2861.857470   4896.046262  -3865.160995 999999.999999
*  2007 03 21 03 44 00.00000000
PL09   2738.221300   4656.641523  -4233.838367 999999.999999
*  2007 03 21 03 45 00.00000000
PL09   2600.324608   4397.836087  -4583.703401 999999.999999
*  2007 03 21 03 46 00.00000000
PL09   2448.618858   4120.906838  -4913.214234 999999.999999
*  2007 03 21 03 47 00.00000000
PL09   2283.626754   3827.204302  -5220.920592 999999.999999
*  2007 03 21 03 48 00.00000000
PL09   2105.940457   3518.145959  -5505.469807 999999.999999
*  2007 03 21 03 49 00.00000000
PL09   1916.219452   3195.209263  -5765.612370 999999.999999
*  2007 03 21 03 50 00.00000000
PL09   1715.188066   2859.924510  -6000.206944 999999.999999
*  2007 03 21 03 51 00.00000000
PL09   1503.632716   2513.867565  -6208.224893 999999.999999
*  2007 03 21 03 52 00.00000000
PL09   1282.398889   2158.652528  -6388.754280 999999.999999
*  2007 03 21 03 53 00.00000000
PL09   1052.387880   1795.924444  -6541.003449 999999.999999
*  2007 03 21 03 54 00.00000000
PL09    814.553205   1427.351874  -6664.304297 999999.999999
*  2007 03 21 03 55 00.00000000
PL09    569.896673   1054.619312  -6758.114826 999999.999999
*  2007 03 21 03 56 00.00000000
PL09    319.464381    679.419815  -6822.021176 999999.999999
*  2007 03 21 03 57 00.00000000
PL09     64.342466    303.447563  -6855.739446 999999.999999
*  2007 03 21 03 58 00.00000000
PL09   -194.347542    -71.609655  -6859.116843 999999.999999
*  2007 03 21 03 59 00.00000000
PL09   -455.453446   -444.077670  -6832.132114 999999.999999
*  2007 03 21 04 00 00.00000000
PL09   -717.797181   -812.303001  -6774.895831 999999.999999
*  2007 03 21 04 01 00.00000000
PL09   -980.179999  -1174.659982  -6687.650098 999999.999999
*  2007 03 21 04 02 00.00000000
PL09  -1241.387673  -1529.557620  -6570.767731 999999.999999
*  2007 03 21 04 03 00.00000000
PL09  -1500.195952  -1875.446406  -6424.751118 999999.999999
*  2007 03 21 04 04 00.00000000
PL09  -1755.376161  -2210.824978  -6250.230353 999999.999999
*  2007 03 21 04 05 00.00000000
PL09  -2005.700787  -2534.246498  -6047.960957 999999.999999
*  2007 03 21 04 06 00.00000000
PL09  -2249.949238  -2844.324866  -5818.821129 999999.999999
*  2007 03 21 04 07 00.00000000
PL09  -2486.913676  -3139.740691  -5563.808513 999999.999999
*  2007 03 21 04 08 00.00000000
PL09  -2715.404979  -3419.247059  -5284.036471 999999.999999
*  2007 03 21 04 09 00.00000000
PL09  -2934.258773  -3681.675025  -4980.729714 999999.999999
*  2007 03 21 04 10 00.00000000
PL09  -3142.341396  -3925.938709  -4655.219388 999999.999999
*  2007 03 21 04 11 00.00000000
PL09  -3338.555798  -4151.040056  -4308.937696 999999.999999
*  2007 03 21 04 12 00.00000000
PL09  -3521.847377  -4356.073228  -3943.412025 999999.999999
*  2007 03 21 04 13 00.00000000
PL09  -3691.209729  -4540.228606  -3560.258609 999999.999999
*  2007 03 21 04 14 00.00000000
PL09  -3845.690297  -4702.796386  -3161.175692 999999.999999
*  2007 03 21 04 15 00.00000000
PL09  -3984.395838  -4843.169676  -2747.936184 999999.999999
*  2007 03 21 04 16 00.00000000
PL09  -4106.497648  -4960.847093  -2322.379946 999999.999999
*  2007 03 21 04 17 00.00000000
PL09  -4211.236591  -5055.434910  -1886.405677 999999.999999
*  2007 03 21 04 18 00.00000000
PL09  -4297.927801  -5126.648646  -1441.962389 999999.999999
*  2007 03 21 04 19 00.00000000
PL09  -4365.965088  -5174.314123   -991.040605 999999.999999
*  2007 03 21 04 20 00.00000000
PL09  -4414.824967  -5198.367977   -535.663229 999999.999999
*  2007 03 21 04 21 00.00000000
PL09  -4444.070275  -5198.857592    -77.876208 999999.999999
*  2007 03 21 04 22 00.00000000
PL09  -4453.353396  -5175.940463    380.260996 999999.999999
*  2007 03 21 04 23 00.00000000
PL09  -4442.419033  -5129.882983    836.685087 999999.999999
*  2007 03 21 04 24 00.00000000
PL09  -4411.106475  -5061.058596   1289.338686 999999.999999
*  2007 03 21 04 25 00.00000000
PL09  -4359.351350  -4969.945377   1736.180056 999999.999999
*  2007 03 21 04 26 00.00000000
PL09  -4287.186856  -4857.123083   2175.192715 999999.999999
*  2007 03 21 04 27 00.00000000
PL09  -4194.744507  -4723.269686   2604.394939 999999.999999
*  2007 03 21 04 28 00.00000000
PL09  -4082.254362  -4569.157401   3021.849077 999999.999999
*  2007 03 21 04 29 00.00000000
PL09  -3950.044750  -4395.648283   3425.670664 999999.999999
*  2007 03 21 04 30 00.00000000
PL09  -3798.541430  -4203.689351   3814.037267 999999.999999
*  2007 03 21 04 31 00.00000000
PL09  -3628.266242  -3994.307281   4185.197022 999999.999999
*  2007 03 21 04 32 00.00000000
PL09  -3439.835202  -3768.602668   4537.476718 999999.999999
*  2007 03 21 04 33 00.00000000
PL09  -3233.956180  -3527.744034   4869.289385 999999.999999
*  2007 03 21 04 34 00.00000000
PL09  -3011.426137  -3272.961594   5179.141537 999999.999999
*  2007 03 21 04 35 00.00000000
PL09  -2773.127821  -3005.540725   5465.639931 999999.999999
*  2007 03 21 04 36 00.00000000
PL09  -2520.026060  -2726.815282   5727.497760 999999.999999
*  2007 03 21 04 37 00.00000000
PL09  -2253.163674  -2438.160751   5963.540372 999999.999999
